NORAD_CAT_ID,OBJECT_NAME,OBJECT_TYPE,EPOCH,MEAN_MOTION,ECCENTRICITY,INCLINATION,RA_OF_ASC_NODE,ARG_OF_PERICENTER,MEAN_ANOMALY,BSTAR,MEAN_MOTION_DOT,MEAN_MOTION_DDOT,TLE_LINE0,TLE_LINE1,TLE_LINE2,SEMIMAJOR_AXIS,PERIOD,APOGEE,PERIGEE,DECAYED
53611.0,STARLINK-4650,PAYLOAD,2023-03-08 04:05:35,15.08830954,0.0002075,53.2176,121.3066,123.8244,236.2946,0.0032235,0.00051376,0.0,0 STARLINK-4650,1 53611U 22104Z   23067.17055307  .00051376  00000-0  32235-2 0  9990,2 53611  53.2176 121.3066 0002075 123.8244 236.2946 15.08830954 29375,6917.908,95.438,541.209,538.338,0.0
53611.0,STARLINK-4650,PAYLOAD,2023-03-08 19:59:27,15.08841249,0.0001543,53.2175,118.3336,89.4868,270.6301,0.00071691,0.0001114,0.0,0 STARLINK-4650,1 53611U 22104Z   23067.83295277  .00011140  00000-0  71691-3 0  9990,2 53611  53.2175 118.3336 0001543  89.4868 270.6301 15.08841249 29475,6917.877,95.437,540.809,538.674,0.0
53611.0,STARLINK-4650,PAYLOAD,2023-03-09 07:07:08,15.08854061,9.31e-05,53.2172,116.2524,103.291,256.8186,0.0017678,0.00027969,0.0,0 STARLINK-4650,1 53611U 22104Z   23068.29663066  .00027969  00000-0  17678-2 0  9996,2 53611  53.2172 116.2524 0000931 103.2910 256.8186 15.08854061 29542,6917.837,95.437,540.346,539.058,0.0
53611.0,STARLINK-4650,PAYLOAD,2023-03-09 19:50:13,15.0888049,5.66e-05,53.2178,113.8739,83.874,276.2317,0.0021042,0.00033396,0.0,0 STARLINK-4650,1 53611U 22104Z   23068.82654328  .00033396  00000-0  21042-2 0  9997,2 53611  53.2178 113.8739 0000566  83.8740 276.2317 15.08880490 30311,6917.757,95.435,540.013,539.23,0.0
53611.0,STARLINK-4650,PAYLOAD,2023-03-10 10:08:41,15.08860546,0.0001359,53.2171,111.1956,75.421,284.6933,0.0017185,0.00027183,0.0,0 STARLINK-4650,1 53611U 22104Z   23069.42270327  .00027183  00000-0  17185-2 0  9997,2 53611  53.2171 111.1956 0001359  75.4210 284.6933 15.08860546 29715,6917.818,95.436,540.623,538.742,0.0
53611.0,STARLINK-4650,PAYLOAD,2023-03-10 19:41:00,15.0884488,8.26e-05,53.2165,109.4124,101.8513,258.2572,0.00055399,8.541e-05,0.0,0 STARLINK-4650,1 53611U 22104Z   23069.82014348  .00008541  00000-0  55399-3 0  9997,2 53611  53.2165 109.4124 0000826 101.8513 258.2572 15.08844880 30466,6917.865,95.437,540.302,539.159,0.0
53611.0,STARLINK-4650,PAYLOAD,2023-03-11 06:48:43,15.08825642,0.0001611,53.2169,107.3304,96.6829,263.4346,0.00089881,0.0001404,0.0,0 STARLINK-4650,1 53611U 22104Z   23070.28383333  .00014040  00000-0  89881-3 0  9996,2 53611  53.2169 107.3304 0001611  96.6829 263.4346 15.08825642 29843,6917.924,95.438,540.904,538.675,0.0
53611.0,STARLINK-4650,PAYLOAD,2023-03-11 11:34:52,15.0883495,0.0001425,53.2174,106.4381,97.872,262.2434,0.00070288,0.00010915,0.0,0 STARLINK-4650,1 53611U 22104Z   23070.48255295  .00010915  00000-0  70288-3 0  9991,2 53611  53.2174 106.4381 0001425  97.8720 262.2434 15.08834950 30568,6917.896,95.438,540.747,538.775,0.0
53611.0,STARLINK-4650,PAYLOAD,2023-03-11 14:45:38,15.0883714,0.0001312,53.2169,105.8432,98.4771,261.637,0.0014553,0.00022947,0.0,0 STARLINK-4650,1 53611U 22104Z   23070.61503443  .00022947  00000-0  14553-2 0  9997,2 53611  53.2169 105.8432 0001312  98.4771 261.6370 15.08837140 30588,6917.889,95.438,540.662,538.847,0.0
53611.0,STARLINK-4650,PAYLOAD,2023-03-12 01:53:21,15.08840284,0.0001518,53.2166,103.7629,97.6839,262.4325,0.0008272,0.00012901,0.0,0 STARLINK-4650,1 53611U 22104Z   23071.07871755  .00012901  00000-0  82720-3 0  9993,2 53611  53.2166 103.7629 0001518  97.6839 262.4325 15.08840284 29966,6917.88,95.438,540.795,538.694,0.0
53611.0,STARLINK-4650,PAYLOAD,2023-03-12 08:14:53,15.0884953,0.0001462,53.2167,102.5737,97.8919,262.2239,0.00092762,0.0001451,0.0,0 STARLINK-4650,1 53611U 22104Z   23071.34367601  .00014510  00000-0  92762-3 0  9998,2 53611  53.2167 102.5737 0001462  97.8919 262.2239 15.08849530 30690,6917.851,95.437,540.728,538.705,0.0
53611.0,STARLINK-4650,PAYLOAD,2023-03-13 12:51:49,15.08859053,0.0001261,53.216,97.2211,106.4702,253.6429,0.00049424,7.591e-05,0.0,0 STARLINK-4650,1 53611U 22104Z   23072.53598656  .00007591  00000-0  49424-3 0  9994,2 53611  53.2160  97.2211 0001261 106.4702 253.6429 15.08859053 30870,6917.822,95.436,540.559,538.815,0.0
53611.0,STARLINK-4650,PAYLOAD,2023-03-14 04:45:40,15.08836966,0.00014,53.2171,94.2472,100.4992,259.6158,-7.2699e-05,-1.445e-05,0.0,0 STARLINK-4650,1 53611U 22104Z   23073.19839053 -.00001445  00000-0 -72699-4 0  9991,2 53611  53.2171  94.2472 0001400 100.4992 259.6158 15.08836966 30286,6917.89,95.438,540.723,538.786,0.0
53611.0,STARLINK-4650,PAYLOAD,2023-03-14 07:56:27,15.08838749,0.0001432,53.2174,93.6523,100.7476,259.3677,-1.1193e-05,-4.66e-06,0.0,0 STARLINK-4650,1 53611U 22104Z   23073.33087053 -.00000466  00000-0 -11193-4 0  9996,2 53611  53.2174  93.6523 0001432 100.7476 259.3677 15.08838749 30996,6917.884,95.438,540.74,538.759,0.0
53611.0,STARLINK-4650,PAYLOAD,2023-03-15 07:47:14,15.08853266,0.0001532,53.2176,89.1919,100.1604,259.9561,0.00062353,9.653e-05,0.0,0 STARLINK-4650,1 53611U 22104Z   23074.32447115  .00009653  00000-0  62353-3 0  9993,2 53611  53.2176  89.1919 0001532 100.1604 259.9561 15.08853266 30455,6917.84,95.437,540.765,538.645,0.0
53611.0,STARLINK-4650,PAYLOAD,2023-03-15 12:33:23,15.08867365,0.0001583,53.2177,88.2986,108.7068,251.4096,0.00091463,0.00014309,0.0,0 STARLINK-4650,1 53611U 22104Z   23074.52318599  .00014309  00000-0  91463-3 0  9996,2 53611  53.2177  88.2986 0001583 108.7068 251.4096 15.08867365 31179,6917.797,95.436,540.757,538.567,0.0
53611.0,STARLINK-4650,PAYLOAD,2023-03-16 04:27:15,15.08843148,0.0001308,53.2185,85.3281,107.5536,252.56,0.00013946,1.932e-05,0.0,0 STARLINK-4650,1 53611U 22104Z   23075.18559191  .00001932  00000-0  13946-3 0  9992,2 53611  53.2185  85.3281 0001308 107.5536 252.5600 15.08843148 30586,6917.871,95.437,540.641,538.831,0.0
53611.0,STARLINK-4650,PAYLOAD,2023-03-16 12:24:10,15.08850152,0.0001216,53.2184,83.8406,106.2797,253.8329,0.00071178,0.00011061,0.0,0 STARLINK-4650,1 53611U 22104Z   23075.51679009  .00011061  00000-0  71178-3 0  9995,2 53611  53.2184  83.8406 0001216 106.2797 253.8329 15.08850152 31328,6917.849,95.437,540.556,538.873,0.0
53611.0,STARLINK-4650,PAYLOAD,2023-03-16 17:10:20,15.0883188,9.03e-05,53.2191,82.948,113.4809,246.6278,7.179e-05,8.55e-06,0.0,0 STARLINK-4650,1 53611U 22104Z   23075.71550977  .00000855  00000-0  71790-4 0  9999,2 53611  53.2191  82.9480 0000903 113.4809 246.6278 15.08831880 31357,6917.905,95.438,540.395,539.146,0.0
53611.0,STARLINK-4650,PAYLOAD,2023-03-17 04:18:02,15.08822943,0.00012,53.2178,80.8672,95.3835,264.7294,0.00043108,6.576e-05,0.0,0 STARLINK-4650,1 53611U 22104Z   23076.17920076  .00006576  00000-0  43108-3 0  9998,2 53611  53.2178  80.8672 0001200  95.3835 264.7294 15.08822943 30730,6917.933,95.439,540.628,538.967,0.0
53611.0,STARLINK-4650,PAYLOAD,2023-03-17 10:39:35,15.0882952,0.0001153,53.2174,79.6778,94.8615,265.2509,0.00057204,8.825e-05,0.0,0 STARLINK-4650,1 53611U 22104Z   23076.44416231  .00008825  00000-0  57204-3 0  9992,2 53611  53.2174  79.6778 0001153  94.8615 265.2509 15.08829520 31460,6917.912,95.438,540.575,538.98,0.0
53611.0,STARLINK-4650,PAYLOAD,2023-03-17 17:01:08,15.08834024,0.0001141,53.2183,78.4885,95.7742,264.3381,0.00047743,7.317e-05,0.0,0 STARLINK-4650,1 53611U 22104Z   23076.70912294  .00007317  00000-0  47743-3 0  9993,2 53611  53.2183  78.4885 0001141  95.7742 264.3381 15.08834024 31502,6917.899,95.438,540.553,538.974,0.0
53611.0,STARLINK-4650,PAYLOAD,2023-03-18 12:05:45,15.08864769,0.000112,53.2169,74.9195,91.4471,268.6649,0.00096555,0.00015123,0.0,0 STARLINK-4650,1 53611U 22104Z   23077.50399543  .00015123  00000-0  96555-3 0  9997,2 53611  53.2169  74.9195 0001120  91.4471 268.6649 15.08864769 30939,6917.805,95.436,540.444,538.895,0.0
53611.0,STARLINK-4650,PAYLOAD,2023-03-18 16:51:54,15.08836638,0.0001051,53.2168,74.0272,93.1793,266.9319,-0.0001714,-3.014e-05,0.0,0 STARLINK-4650,1 53611U 22104Z   23077.70271975 -.00003014  00000-0 -17140-3 0  9998,2 53611  53.2168  74.0272 0001051  93.1793 266.9319 15.08836638 30966,6917.891,95.438,540.483,539.029,0.0
53611.0,STARLINK-4650,PAYLOAD,2023-03-19 11:56:32,15.08854326,0.0001267,53.2159,70.4582,91.8083,268.3055,0.00085798,0.00013398,0.0,0 STARLINK-4650,1 53611U 22104Z   23078.49759890  .00013398  00000-0  85798-3 0  9990,2 53611  53.2159  70.4582 0001267  91.8083 268.3055 15.08854326 31087,6917.837,95.437,540.578,538.825,0.0
53611.0,STARLINK-4650,PAYLOAD,2023-03-19 16:42:42,15.08835613,0.0001357,53.2164,69.5662,89.3576,270.7571,0.00031474,4.724e-05,0.0,0 STARLINK-4650,1 53611U 22104Z   23078.69632409  .00004724  00000-0  31474-3 0  9993,2 53611  53.2164  69.5662 0001357  89.3576 270.7571 15.08835613 31112,6917.894,95.438,540.698,538.82,0.0
53611.0,STARLINK-4650,PAYLOAD,2023-03-20 08:36:33,15.08853974,0.0001351,53.2166,66.593,80.271,279.8435,0.0016342,0.00025826,0.0,0 STARLINK-4650,1 53611U 22104Z   23079.35872360  .00025826  00000-0  16342-2 0  9991,2 53611  53.2166  66.5930 0001351  80.2710 279.8435 15.08853974 31213,6917.838,95.437,540.637,538.768,0.0
53611.0,STARLINK-4650,PAYLOAD,2023-03-20 16:33:29,15.08851324,0.0001211,53.2172,65.1054,90.5746,269.5384,0.0010597,0.00016623,0.0,0 STARLINK-4650,1 53611U 22104Z   23079.68992370  .00016623  00000-0  10597-2 0  9992,2 53611  53.2172  65.1054 0001211  90.5746 269.5384 15.08851324 31261,6917.846,95.437,540.549,538.873,0.0
53611.0,STARLINK-4650,PAYLOAD,2023-03-21 10:02:43,15.08866453,0.0001444,53.2176,61.8337,94.2737,265.8421,0.0009309,0.00014569,0.0,0 STARLINK-4650,1 53611U 22104Z   23080.41855690  .00014569  00000-0  93090-3 0  9995,2 53611  53.2176  61.8337 0001444  94.2737 265.8421 15.08866453 31373,6917.8,95.436,540.663,538.666,0.0
53611.0,STARLINK-4650,PAYLOAD,2023-03-22 05:07:21,15.08841176,0.0001358,53.2174,58.2661,102.6831,257.4313,0.00024768,3.656e-05,0.0,0 STARLINK-4650,1 53611U 22104Z   23081.21344178  .00003656  00000-0  24768-3 0  9999,2 53611  53.2174  58.2661 0001358 102.6831 257.4313 15.08841176 31499,6917.877,95.437,540.681,538.802,0.0
